GLOBALSTAR M035         
1 25851U 99037A   24208.58491535 -.00000023  00000+0  15441-2 0  9997
2 25851  51.9963  61.0843 0013254 171.1510 200.5077 11.04531453 60283
GLOBALSTAR M032         
1 25852U 99037B   24208.56848387 -.00000076  00000+0 -29310-3 0  9997
2 25852  51.9940 268.7887 0009826 336.7577  23.2778 11.19059423 98338
GLOBALSTAR M051         
1 25853U 99037C   24208.15667468 -.00000106  00000+0 -83190-3 0  9992
2 25853  51.9794 107.3956 0001841   8.8903 351.1940 11.42198893 95130
GLOBALSTAR M030         
1 25854U 99037D   24208.36651066 -.00000053  00000+0  47336-3 0  9995
2 25854  51.9887 293.7172 0004046 177.9308 182.1526 11.55099263112396
GLOBALSTAR M048         
1 25872U 99041A   24208.45029872 -.00000071  00000+0 -29988-4 0  9999
2 25872  51.9390  29.1270 0013216 344.4534  27.4923 11.33847501 88033
GLOBALSTAR M026         
1 25873U 99041B   24208.22668854 -.00000017  00000+0  17390-2 0  9995
2 25873  51.9971 183.2699 0001341  48.3176  54.0468 11.06835352112392
GLOBALSTAR M043         
1 25874U 99041C   24208.23052066  .00000022  00000+0  26981-2 0  9990
2 25874  51.9394 124.3015 0012544 112.0247  58.1852 11.25682818 86160
GLOBALSTAR M028         
1 25875U 99041D   24208.37969200 -.00000070  00000+0  20064-3 0  9994
2 25875  51.9627  84.5493 0064159  83.6611 277.1552 12.50560028149419
